[{"OBJECT_NAME":"AVION KALUGA 650","OBJECT_ID":"2023-091AF","EPOCH":"2026-03-09T22:36:21.989088","MEAN_MOTION":15.19219239,"ECCENTRICITY":0.00122198,"INCLINATION":97.5213,"RA_OF_ASC_NODE":128.9411,"ARG_OF_PERICENTER":96.9112,"MEAN_ANOMALY":263.3513,"EPHEMERIS_TYPE":0,"CLASSIFICATION_TYPE":"U","NORAD_CAT_ID":57195,"ELEMENT_SET_NO":999,"REV_AT_EPOCH":14895,"BSTAR":0.0003411279,"MEAN_MOTION_DOT":7.129e-5,"MEAN_MOTION_DDOT":0},{"OBJECT_NAME":"STARLINK-30586","OBJECT_ID":"2023-160K","EPOCH":"2026-03-09T22:00:01.999584","MEAN_MOTION":15.05382628,"ECCENTRICITY":0.00025296,"INCLINATION":43.0008,"RA_OF_ASC_NODE":79.0076,"ARG_OF_PERICENTER":239.6064,"MEAN_ANOMALY":68.6958,"EPHEMERIS_TYPE":0,"CLASSIFICATION_TYPE":"U","NORAD_CAT_ID":58084,"ELEMENT_SET_NO":999,"REV_AT_EPOCH":562,"BSTAR":0.12137098,"MEAN_MOTION_DOT":0.01932724,"MEAN_MOTION_DDOT":0}]
